{"type": "FeatureCollection", "features": [ {"type": "Feature", "properties": {"norad_id": 43622, "name": "BEIDOU-3 M13 (C32)", "group": "beidou", "lat": 29.485582987978827, "lon": 90.36592576823331, "alt_km": 21527.11988272393, "timestamp": "2025-12-26T16:33:55.837782+00:00", "meta": {"OBJECT_NAME": "BEIDOU-3 M13 (C32)", "OBJECT_ID": "2018-072A", "EPOCH": "2025-12-26T02:23:02.012640", "MEAN_MOTION": 1.86231101, "ECCENTRICITY": 0.00064409, "INCLINATION": 56.4701, "RA_OF_ASC_NODE": 68.3781, "ARG_OF_PERICENTER": 297.7459, "MEAN_ANOMALY": 62.2416, "EPHEMERIS_TYPE": 0, "CLASSIFICATION_TYPE": "U", "NORAD_CAT_ID": 43622, "ELEMENT_SET_NO": 999, "REV_AT_EPOCH": 4943, "BSTAR": 0, "MEAN_MOTION_DOT": -3e-07, "MEAN_MOTION_DDOT": 0}, "tle": {"line1": "1 43622U 18072A   25360.09932885 -.00000030  00000+0  00000+0 0  9997", "line2": "2 43622  56.4701  68.3781 0006440 297.7459  62.2416  1.86231101 49436"}}, "geometry": {"type": "Point", "coordinates": [90.36592576823331, 29.485582987978827]}}, {"type": "Feature", "properties": {"norad_id": 43623, "name": "BEIDOU-3 M14 (C33)", "group": "beidou", "lat": 42.150097806743055, "lon": -148.45922279809457, "alt_km": 21532.337813008588, "timestamp": "2025-12-26T16:33:55.837792+00:00", "meta": {"OBJECT_NAME": "BEIDOU-3 M14 (C33)", "OBJECT_ID": "2018-072B", "EPOCH": "2025-12-23T06:43:13.861056", "MEAN_MOTION": 1.86231163, "ECCENTRICITY": 0.00035931, "INCLINATION": 56.4696, "RA_OF_ASC_NODE": 68.4654, "ARG_OF_PERICENTER": 327.0772, "MEAN_ANOMALY": 32.9541, "EPHEMERIS_TYPE": 0, "CLASSIFICATION_TYPE": "U", "NORAD_CAT_ID": 43623, "ELEMENT_SET_NO": 999, "REV_AT_EPOCH": 4937, "BSTAR": 0, "MEAN_MOTION_DOT": -2.6e-07, "MEAN_MOTION_DDOT": 0}, "tle": {"line1": "1 43623U 18072B   25357.28002154 -.00000026  00000+0  00000+0 0  9997", "line2": "2 43623  56.4696  68.4654 0003593 327.0772  32.9541  1.86231163 49375"}}, "geometry": {"type": "Point", "coordinates": [-148.45922279809457, 42.150097806743055]}}, {"type": "Feature", "properties": {"norad_id": 43647, "name": "BEIDOU-3 M16 (C35)", "group": "beidou", "lat": 16.67800057531909, "lon": -41.53146162850306, "alt_km": 21505.07134464323, "timestamp": "2025-12-26T16:33:55.837802+00:00", "meta": {"OBJECT_NAME": "BEIDOU-3 M16 (C35)", "OBJECT_ID": "2018-078A", "EPOCH": "2025-12-25T14:03:06.964128", "MEAN_MOTION": 1.86232241, "ECCENTRICITY": 0.00074973, "INCLINATION": 54.2499, "RA_OF_ASC_NODE": 306.0723, "ARG_OF_PERICENTER": 20.7001, "MEAN_ANOMALY": 339.3399, "EPHEMERIS_TYPE": 0, "CLASSIFICATION_TYPE": "U", "NORAD_CAT_ID": 43647, "ELEMENT_SET_NO": 999, "REV_AT_EPOCH": 4892, "BSTAR": 0, "MEAN_MOTION_DOT": -5.4e-07, "MEAN_MOTION_DDOT": 0}, "tle": {"line1": "1 43647U 18078A   25359.58549727 -.00000054  00000+0  00000+0 0  9997", "line2": "2 43647  54.2499 306.0723 0007497  20.7001 339.3399  1.86232241 48928"}}, "geometry": {"type": "Point", "coordinates": [-41.53146162850306, 16.67800057531909]}}, {"type": "Feature", "properties": {"norad_id": 43648, "name": "BEIDOU-3 M15 (C34)", "group": "beidou", "lat": -47.84563726740535, "lon": -106.63957203838008, "alt_km": 21532.421307002915, "timestamp": "2025-12-26T16:33:55.837812+00:00", "meta": {"OBJECT_NAME": "BEIDOU-3 M15 (C34)", "OBJECT_ID": "2018-078B", "EPOCH": "2025-12-25T17:09:11.649024", "MEAN_MOTION": 1.86232344, "ECCENTRICITY": 0.00040789, "INCLINATION": 54.2458, "RA_OF_ASC_NODE": 306.069, "ARG_OF_PERICENTER": 19.7485, "MEAN_ANOMALY": 340.2771, "EPHEMERIS_TYPE": 0, "CLASSIFICATION_TYPE": "U", "NORAD_CAT_ID": 43648, "ELEMENT_SET_NO": 999, "REV_AT_EPOCH": 4894, "BSTAR": 0, "MEAN_MOTION_DOT": -5.4e-07, "MEAN_MOTION_DDOT": 0}, "tle": {"line1": "1 43648U 18078B   25359.71471816 -.00000054  00000+0  00000+0 0  9996", "line2": "2 43648  54.2458 306.0690 0004078  19.7485 340.2771  1.86232344 48944"}}, "geometry": {"type": "Point", "coordinates": [-106.63957203838008, -47.84563726740535]}}, {"type": "Feature", "properties": {"norad_id": 43683, "name": "BEIDOU-3 G1 (C59)", "group": "beidou", "lat": 0.9774882153755897, "lon": 123.79602934459109, "alt_km": 35783.09403215965, "timestamp": "2025-12-26T16:33:55.837823+00:00", "meta": {"OBJECT_NAME": "BEIDOU-3 G1 (C59)", "OBJECT_ID": "2018-085A", "EPOCH": "2025-12-26T05:08:26.429856", "MEAN_MOTION": 1.0026556, "ECCENTRICITY": 0.0001266, "INCLINATION": 2.6395, "RA_OF_ASC_NODE": 102.5209, "ARG_OF_PERICENTER": 50.4767, "MEAN_ANOMALY": 159.0004, "EPHEMERIS_TYPE": 0, "CLASSIFICATION_TYPE": "U", "NORAD_CAT_ID": 43683, "ELEMENT_SET_NO": 999, "REV_AT_EPOCH": 2632, "BSTAR": 0, "MEAN_MOTION_DOT": -2.58e-06, "MEAN_MOTION_DDOT": 0}, "tle": {"line1": "1 43683U 18085A   25360.21419479 -.00000258  00000+0  00000+0 0  9993", "line2": "2 43683   2.6395 102.5209 0001266  50.4767 159.0004  1.00265560 26321"}}, "geometry": {"type": "Point", "coordinates": [123.79602934459109, 0.9774882153755897]}}, {"type": "Feature", "properties": {"norad_id": 43706, "name": "BEIDOU-3 M17 (C36)", "group": "beidou", "lat": -6.1318483820804435, "lon": 12.603172476740356, "alt_km": 21537.566408433926, "timestamp": "2025-12-26T16:33:55.837833+00:00", "meta": {"OBJECT_NAME": "BEIDOU-3 M17 (C36)", "OBJECT_ID": "2018-093A", "EPOCH": "2025-12-26T03:36:39.806208", "MEAN_MOTION": 1.86228273, "ECCENTRICITY": 0.00059945, "INCLINATION": 54.1735, "RA_OF_ASC_NODE": 188.1665, "ARG_OF_PERICENTER": 306.9478, "MEAN_ANOMALY": 238.7851, "EPHEMERIS_TYPE": 0, "CLASSIFICATION_TYPE": "U", "NORAD_CAT_ID": 43706, "ELEMENT_SET_NO": 999, "REV_AT_EPOCH": 4831, "BSTAR": 0, "MEAN_MOTION_DOT": 1.19e-06, "MEAN_MOTION_DDOT": 0}, "tle": {"line1": "1 43706U 18093A   25360.15046072  .00000119  00000+0  00000+0 0  9991", "line2": "2 43706  54.1735 188.1665 0005994 306.9478 238.7851  1.86228273 48315"}}, "geometry": {"type": "Point", "coordinates": [12.603172476740356, -6.1318483820804435]}}, {"type": "Feature", "properties": {"norad_id": 43707, "name": "BEIDOU-3 M18 (C37)", "group": "beidou", "lat": -52.879218597662444, "lon": 115.43886341759918, "alt_km": 21529.439287358444, "timestamp": "2025-12-26T16:33:55.837843+00:00", "meta": {"OBJECT_NAME": "BEIDOU-3 M18 (C37)", "OBJECT_ID": "2018-093B", "EPOCH": "2025-12-23T01:12:21.238848", "MEAN_MOTION": 1.86226616, "ECCENTRICITY": 0.0006147, "INCLINATION": 54.1741, "RA_OF_ASC_NODE": 188.2636, "ARG_OF_PERICENTER": 354.1254, "MEAN_ANOMALY": 5.9078, "EPHEMERIS_TYPE": 0, "CLASSIFICATION_TYPE": "U", "NORAD_CAT_ID": 43707, "ELEMENT_SET_NO": 999, "REV_AT_EPOCH": 4825, "BSTAR": 0, "MEAN_MOTION_DOT": 9.6e-07, "MEAN_MOTION_DDOT": 0}, "tle": {"line1": "1 43707U 18093B   25357.05024582  .00000096  00000+0  00000+0 0  9993", "line2": "2 43707  54.1741 188.2636 0006147 354.1254   5.9078  1.86226616 48257"}}, "geometry": {"type": "Point", "coordinates": [115.43886341759918, -52.879218597662444]}}, {"type": "Feature", "properties": {"norad_id": 44231, "name": "BEIDOU-2 G8 (C01)", "group": "beidou", "lat": 1.383526744756062, "lon": 128.46126142544392, "alt_km": 35817.02847487778, "timestamp": "2025-12-26T16:33:55.837854+00:00", "meta": {"OBJECT_NAME": "BEIDOU-2 G8 (C01)", "OBJECT_ID": "2019-027A", "EPOCH": "2025-12-26T04:27:38.588256", "MEAN_MOTION": 1.00274017, "ECCENTRICITY": 0.00083192, "INCLINATION": 1.6938, "RA_OF_ASC_NODE": 74.741, "ARG_OF_PERICENTER": 259.007, "MEAN_ANOMALY": 332.6181, "EPHEMERIS_TYPE": 0, "CLASSIFICATION_TYPE": "U", "NORAD_CAT_ID": 44231, "ELEMENT_SET_NO": 999, "REV_AT_EPOCH": 2434, "BSTAR": 0, "MEAN_MOTION_DOT": -2.25e-06, "MEAN_MOTION_DDOT": 0}, "tle": {"line1": "1 44231U 19027A   25360.18586329 -.00000225  00000+0  00000+0 0  9999", "line2": "2 44231   1.6938  74.7410 0008319 259.0070 332.6181  1.00274017 24349"}}, "geometry": {"type": "Point", "coordinates": [128.46126142544392, 1.383526744756062]}}, {"type": "Feature", "properties": {"norad_id": 44337, "name": "BEIDOU-3 IGSO-2 (C39)", "group": "beidou", "lat": -43.34107638573968, "lon": 119.36623735411162, "alt_km": 35822.143238221666, "timestamp": "2025-12-26T16:33:55.837864+00:00", "meta": {"OBJECT_NAME": "BEIDOU-3 IGSO-2 (C39)", "OBJECT_ID": "2019-035A", "EPOCH": "2025-12-25T18:13:52.363776", "MEAN_MOTION": 1.00267205, "ECCENTRICITY": 0.00378775, "INCLINATION": 55.2292, "RA_OF_ASC_NODE": 160.387, "ARG_OF_PERICENTER": 202.6493, "MEAN_ANOMALY": 124.2453, "EPHEMERIS_TYPE": 0, "CLASSIFICATION_TYPE": "U", "NORAD_CAT_ID": 44337, "ELEMENT_SET_NO": 999, "REV_AT_EPOCH": 2392, "BSTAR": 0, "MEAN_MOTION_DOT": -6.4e-07, "MEAN_MOTION_DDOT": 0}, "tle": {"line1": "1 44337U 19035A   25359.75963384 -.00000064  00000+0  00000+0 0  9997", "line2": "2 44337  55.2292 160.3870 0037877 202.6493 124.2453  1.00267205 23921"}}, "geometry": {"type": "Point", "coordinates": [119.36623735411162, -43.34107638573968]}}, {"type": "Feature", "properties": {"norad_id": 44542, "name": "BEIDOU-3 M24 (C46)", "group": "beidou", "lat": -40.426746672679386, "lon": 46.17183205527751, "alt_km": 21556.838634083586, "timestamp": "2025-12-26T16:33:55.837874+00:00", "meta": {"OBJECT_NAME": "BEIDOU-3 M24 (C46)", "OBJECT_ID": "2019-061A", "EPOCH": "2025-12-25T19:20:31.720416", "MEAN_MOTION": 1.86229328, "ECCENTRICITY": 0.00095592, "INCLINATION": 54.4007, "RA_OF_ASC_NODE": 188.5751, "ARG_OF_PERICENTER": 26.2339, "MEAN_ANOMALY": 333.8493, "EPHEMERIS_TYPE": 0, "CLASSIFICATION_TYPE": "U", "NORAD_CAT_ID": 44542, "ELEMENT_SET_NO": 999, "REV_AT_EPOCH": 4256, "BSTAR": 0, "MEAN_MOTION_DOT": 1.16e-06, "MEAN_MOTION_DDOT": 0}, "tle": {"line1": "1 44542U 19061A   25359.80592269  .00000116  00000+0  00000+0 0  9997", "line2": "2 44542  54.4007 188.5751 0009559  26.2339 333.8493  1.86229328 42560"}}, "geometry": {"type": "Point", "coordinates": [46.17183205527751, -40.426746672679386]}}]}